      2.10          N: GNSS NAV DATA                        RINEX VERSION / TYPE
fic2rin                                 09/19/2023 00:18:06 PGM / RUN BY / DATE
                                                            END OF HEADER
26 23  9 18  5 59 44.0  .227938871831D-03 -.193267624127D-11  .000000000000D+00
     .660000000000D+02  .964687500000D+02  .528164857329D-08 -.259455627921D+01
     .476092100143D-05  .819878571201D-02  .691600143909D-05  .515375482559D+04
     .107984000000D+06 -.260770320892D-07 -.191797908531D+01 -.193715095520D-06
     .932764863549D+00  .234687500000D+03  .469100297305D+00 -.842356516101D-08
     .480734310228D-09  .100000000000D+01  .228000000000D+04  .000000000000D+00
     .240000000000D+01  .000000000000D+00  .698491930962D-08  .660000000000D+02
     .100800000000D+06  .400000000000D+01
2  23  9 18  6  0  0.0 -.552624464035D-03  .454747350886D-11  .000000000000D+00
     .420000000000D+02 -.642812500000D+02  .420017495415D-08  .238374307798D+01
    -.322051346302D-05  .159741570242D-01  .102519989014D-04  .515375398254D+04
     .108000000000D+06  .223517417908D-06  .166379801701D+00 -.987201929092D-07
     .967901791738D+00  .177781250000D+03 -.134489985207D+01 -.762888920243D-08
    -.322870591713D-09  .100000000000D+01  .228000000000D+04  .000000000000D+00
     .240000000000D+01  .000000000000D+00 -.176951289177D-07  .420000000000D+02
     .100800000000D+06  .400000000000D+01
1  23  9 18  6  0  0.0  .165240373462D-03 -.795807864051D-12  .000000000000D+00
     .650000000000D+02 -.359375000000D+02  .377051419991D-08 -.301693939655D+00
    -.184401869774D-05  .128785403213D-01  .110119581223D-04  .515364087486D+04
     .108000000000D+06 -.484287738800D-07  .267421006495D+00  .122934579849D-06
     .990620273139D+00  .182468750000D+03  .992482920417D+00 -.784961268216D-08
    -.148577617426D-09  .100000000000D+01  .228000000000D+04  .000000000000D+00
     .340000000000D+01  .630000000000D+02  .512227416039D-08  .650000000000D+02
     .100800000000D+06  .400000000000D+01
3  23  9 18  6  0  0.0 -.129082240164D-03  .209183781408D-10  .000000000000D+00
     .110000000000D+02  .401875000000D+02  .416303054979D-08 -.150531502516D+01
     .203587114811D-05  .511172215920D-02  .715255737305D-05  .515359711456D+04
     .108000000000D+06  .102445483208D-06  .129682469791D+01  .428408384323D-07
     .980301540968D+00  .253875000000D+03  .111055967458D+01 -.790425781549D-08
     .311441544219D-09  .100000000000D+01  .228000000000D+04  .000000000000D+00
     .240000000000D+01  .000000000000D+00  .186264514923D-08  .110000000000D+02
     .100800000000D+06  .400000000000D+01
5  23  9 18  6  0  0.0 -.143149401993D-03 -.147792889038D-11  .000000000000D+00
     .102000000000D+03  .442187500000D+02  .449268713845D-08  .220378663286D+01
     .208988785744D-05  .602670374792D-02  .741891562939D-05  .515372630692D+04
     .108000000000D+06  .745058059692D-07  .124875287920D+01 -.633299350739D-07
     .967338296174D+00  .239500000000D+03  .122739214963D+01 -.802997733793D-08
     .386087510666D-09  .100000000000D+01  .228000000000D+04  .000000000000D+00
     .240000000000D+01  .000000000000D+00 -.111758708954D-07  .102000000000D+03
     .100800000000D+06  .400000000000D+01
8  23  9 18  6  0  0.0 -.142821576446D-03 -.193267624127D-11  .000000000000D+00
     .870000000000D+02 -.449062500000D+02  .511128433408D-08  .184760167920D+01
    -.220537185669D-05  .863950711209D-02  .335462391376D-05  .515374951935D+04
     .108000000000D+06 -.596046447754D-07 -.827495317873D+00  .242143869400D-06
     .956873891010D+00  .313875000000D+03  .270782170501D+00 -.855857078454D-08
    -.266796827444D-09  .100000000000D+01  .228000000000D+04  .000000000000D+00
     .240000000000D+01  .000000000000D+00  .512227416039D-08  .870000000000D+02
     .100800000000D+06  .400000000000D+01
7  23  9 18  6  0  0.0  .641834922135D-04 -.104591890704D-10  .000000000000D+00
     .860000000000D+02  .159687500000D+02  .446625746612D-08 -.999912570784D+00
     .113993883133D-05  .175610029837D-01  .110566616058D-04  .515372931290D+04
     .108000000000D+06  .203028321266D-06 -.289152233974D+01  .404193997383D-06
     .950806919576D+00  .160937500000D+03 -.217245990992D+01 -.809176562595D-08
    -.614311302817D-10  .100000000000D+01  .228000000000D+04  .000000000000D+00
     .240000000000D+01  .000000000000D+00 -.111758708954D-07  .860000000000D+02
     .100800000000D+06  .400000000000D+01
4  23  9 18  6  0  0.0  .159281771630D-03  .111413100967D-10  .000000000000D+00
     .167000000000D+03 -.486875000000D+02  .462054960729D-08  .152237285477D+01
    -.242330133915D-05  .255410536192D-02  .562518835068D-05  .515362042046D+04
     .108000000000D+06 -.558793544769D-07  .237765408377D+01  .242143869400D-07
     .963429197665D+00  .273218750000D+03 -.304621692236D+01 -.818212653270D-08
    -.337156901081D-09  .100000000000D+01  .228000000000D+04  .000000000000D+00
     .240000000000D+01  .000000000000D+00 -.419095158577D-08  .423000000000D+03
     .100800000000D+06  .400000000000D+01
12 23  9 18  6  0  0.0 -.426033511758D-03 -.432009983342D-11  .000000000000D+00
     .570000000000D+02  .929062500000D+02  .475519807309D-08 -.164100052779D+01
     .509992241859D-05  .857715902384D-02  .514090061188D-05  .515378774261D+04
     .108000000000D+06  .145286321640D-06 -.177645705595D+01  .152736902237D-06
     .964125894845D+00  .283187500000D+03  .139045721595D+01 -.827498754359D-08
     .463233581252D-09  .100000000000D+01  .228000000000D+04  .000000000000D+00
     .240000000000D+01  .000000000000D+00 -.125728547573D-07  .570000000000D+02
     .100800000000D+06  .400000000000D+01
10 23  9 18  6  0  0.0 -.538337044418D-04 -.147792889038D-11  .000000000000D+00
     .560000000000D+02  .362187500000D+02  .409945647310D-08 -.239487169037D+01
     .189803540707D-05  .881229329389D-02  .753998756409D-05  .515368246269D+04
     .108000000000D+06  .502914190292D-07  .129420881752D+01 -.949949026108D-07
     .980016625969D+00  .244125000000D+03 -.244362823227D+01 -.772782189480D-08
     .473233997810D-09  .100000000000D+01  .228000000000D+04  .000000000000D+00
     .240000000000D+01  .000000000000D+00  .232830643654D-08  .560000000000D+02
     .100800000000D+06  .400000000000D+01
11 23  9 18  6  0  0.0 -.374171417207D-03 -.183035808732D-10  .000000000000D+00
     .600000000000D+02 -.366250000000D+02  .421124684391D-08  .124559355986D+01
    -.183098018169D-05  .115197326522D-02  .117495656013D-04  .515360290146D+04
     .108000000000D+06  .465661287308D-07  .297790128131D+00  .409781932831D-07
     .966080467506D+00  .156093750000D+03 -.275132063930D+01 -.788747140199D-08
    -.119647840956D-09  .100000000000D+01  .228000000000D+04  .000000000000D+00
     .240000000000D+01  .000000000000D+00 -.838190317154D-08  .828000000000D+03
     .100800000000D+06  .400000000000D+01
31 23  9 18  6  0  0.0 -.223525334150D-03 -.568434188608D-12  .000000000000D+00
     .350000000000D+02  .353125000000D+01  .430803658987D-08 -.184651455845D+01
    -.139698386192D-06  .104655580362D-01  .116899609566D-04  .515363261223D+04
     .108000000000D+06  .242143869400D-07 -.287107093810D+01 -.163912773132D-06
     .954858231278D+00  .145125000000D+03  .585203959728D+00 -.777925260852D-08
     .250010413937D-10  .100000000000D+01  .228000000000D+04  .000000000000D+00
     .240000000000D+01  .000000000000D+00 -.130385160446D-07  .350000000000D+02
     .100800000000D+06  .400000000000D+01
32 23  9 18  6  0  0.0 -.559673644602D-03 -.602540239925D-11  .000000000000D+00
     .220000000000D+02 -.401875000000D+02  .466305137766D-08  .251951919083D+01
    -.206381082535D-05  .697349978145D-02  .539608299732D-05  .515356834793D+04
     .108000000000D+06  .372529029846D-07  .233370615945D+01 -.126659870148D-06
     .960330817633D+00  .273187500000D+03 -.222251120307D+01 -.813819613139D-08
    -.216080429189D-09  .100000000000D+01  .228000000000D+04  .000000000000D+00
     .240000000000D+01  .000000000000D+00  .465661287308D-09  .220000000000D+02
     .100800000000D+06  .400000000000D+01
24 23  9 18  6  0  0.0 -.322579406202D-03 -.105728759081D-10  .000000000000D+00
     .270000000000D+02  .465625000000D+01  .492949104737D-08  .178733201298D-01
     .262632966042D-06  .144615133759D-01  .114627182484D-04  .515364137459D+04
     .108000000000D+06 -.130385160446D-07 -.298411910740D+01  .245869159698D-06
     .934443572286D+00  .149187500000D+03  .920065235130D+00 -.838249202158D-08
    -.196793911542D-09  .100000000000D+01  .228000000000D+04  .000000000000D+00
     .240000000000D+01  .000000000000D+00  .232830643654D-08  .270000000000D+02
     .100800000000D+06  .400000000000D+01
29 23  9 18  6  0  0.0 -.609393697232D-03 -.341060513165D-12  .000000000000D+00
     .840000000000D+02 -.614375000000D+02  .462840707745D-08  .177033948949D+01
    -.311061739922D-05  .259146979079D-02  .404193997383D-05  .515370897865D+04
     .108000000000D+06  .521540641785D-07 -.722330588814D+00 -.409781932831D-07
     .974911589004D+00  .306312500000D+03  .256016084276D+01 -.830427447779D-08
    -.378944355982D-09  .100000000000D+01  .228000000000D+04  .000000000000D+00
     .240000000000D+01  .000000000000D+00 -.977888703346D-08  .840000000000D+02
     .100800000000D+06  .400000000000D+01
27 23  9 18  6  0  0.0 -.413116067648D-04 -.625277607469D-11  .000000000000D+00
     .980000000000D+02 -.454062500000D+02  .485341644999D-08  .192136461422D+01
    -.242888927460D-05  .116266993573D-01  .373087823391D-05  .515366629791D+04
     .108000000000D+06 -.298023223877D-06 -.803189163664D+00 -.335276126862D-07
     .965824448065D+00  .312406250000D+03  .741648606379D+00 -.837534886690D-08
    -.222152110670D-09  .100000000000D+01  .228000000000D+04  .000000000000D+00
     .340000000000D+01  .000000000000D+00  .139698386192D-08  .980000000000D+02
     .100800000000D+06  .400000000000D+01
